NORAD_CAT_ID,OBJECT_NAME,OBJECT_TYPE,EPOCH,MEAN_MOTION,ECCENTRICITY,INCLINATION,RA_OF_ASC_NODE,ARG_OF_PERICENTER,MEAN_ANOMALY,BSTAR,MEAN_MOTION_DOT,MEAN_MOTION_DDOT,TLE_LINE0,TLE_LINE1,TLE_LINE2,SEMIMAJOR_AXIS,PERIOD,APOGEE,PERIGEE,DECAYED
52000.0,STARLINK-3653,PAYLOAD,2024-04-05 13:04:51,15.08842253,0.0001661,53.2162,295.5716,83.6135,276.5046,9.3305e-05,1.197e-05,0.0,0 STARLINK-3653,1 52000U 22025AW  24096.54503771  .00001197  00000-0  93305-4 0  9993,2 52000  53.2162 295.5716 0001661  83.6135 276.5046 15.08842253114771,6917.874,95.437,540.888,538.589,0.0
52000.0,STARLINK-3653,PAYLOAD,2024-04-05 19:26:24,15.08834918,0.0001181,53.2172,294.3802,91.981,268.1317,3.081e-05,2.02e-06,0.0,0 STARLINK-3653,1 52000U 22025AW  24096.81000265  .00000202  00000-0  30810-4 0  9991,2 52000  53.2172 294.3802 0001181  91.9810 268.1317 15.08834918116346,6917.896,95.438,540.578,538.944,0.0
52000.0,STARLINK-3653,PAYLOAD,2024-04-06 12:55:38,15.08841079,0.0001273,53.2166,291.1098,88.9483,271.1655,4.9745e-05,5.04e-06,0.0,0 STARLINK-3653,1 52000U 22025AW  24097.53863761  .00000504  00000-0  49745-4 0  9991,2 52000  53.2166 291.1098 0001273  88.9483 271.1655 15.08841079116452,6917.877,95.437,540.623,538.861,0.0
52000.0,STARLINK-3653,PAYLOAD,2024-04-06 19:17:10,15.08841229,0.0001285,53.2166,289.9204,88.8972,271.2167,4.7675e-05,4.71e-06,0.0,0 STARLINK-3653,1 52000U 22025AW  24097.80359747  .00000471  00000-0  47675-4 0  9998,2 52000  53.2166 289.9204 0001285  88.8972 271.2167 15.08841229114961,6917.877,95.437,540.631,538.853,0.0
52000.0,STARLINK-3653,PAYLOAD,2024-04-08 12:37:12,15.08840034,0.0001335,53.2169,282.1893,87.9986,272.1159,2.1323e-05,5.1e-07,0.0,0 STARLINK-3653,1 52000U 22025AW  24099.52583971  .00000051  00000-0  21323-4 0  9993,2 52000  53.2169 282.1893 0001335  87.9986 272.1159 15.08840034116757,6917.88,95.438,540.669,538.822,0.0
52000.0,STARLINK-3653,PAYLOAD,2024-04-08 18:58:44,15.08843069,0.0001391,53.2173,281.0003,89.2304,270.8847,4.5976e-05,4.44e-06,0.0,0 STARLINK-3653,1 52000U 22025AW  24099.79079710  .00000444  00000-0  45976-4 0  9999,2 52000  53.2173 281.0003 0001391  89.2304 270.8847 15.08843069115269,6917.871,95.437,540.698,538.774,0.0
52000.0,STARLINK-3653,PAYLOAD,2024-04-09 04:31:03,15.08847976,0.0001357,53.2164,279.2152,90.4929,269.6219,8.32e-05,1.037e-05,0.0,0 STARLINK-3653,1 52000U 22025AW  24100.18823165  .00001037  00000-0  83200-4 0  9997,2 52000  53.2164 279.2152 0001357  90.4929 269.6219 15.08847976116858,6917.856,95.437,540.66,538.782,0.0
52000.0,STARLINK-3653,PAYLOAD,2024-04-09 12:28:00,15.0885548,0.0002291,53.2216,277.7295,92.7139,267.4115,-0.00014399,-2.58e-05,0.0,0 STARLINK-3653,1 52000U 22025AW  24100.51944893 -.00002580  00000-0 -14399-3 0  9994,2 52000  53.2216 277.7295 0002291  92.7139 267.4115 15.08855480116909,6917.833,95.437,541.283,538.113,0.0
52000.0,STARLINK-3653,PAYLOAD,2024-04-09 18:49:32,15.08833149,0.0001671,53.2191,276.5396,93.3418,266.7766,-3.0614e-05,-7.75e-06,0.0,0 STARLINK-3653,1 52000U 22025AW  24100.78440886 -.00000775  00000-0 -30614-4 0  9999,2 52000  53.2191 276.5396 0001671  93.3418 266.7766 15.08833149116944,6917.901,95.438,540.922,538.61,0.0
52000.0,STARLINK-3653,PAYLOAD,2024-04-10 04:21:52,15.08832016,0.0002128,53.2208,274.7558,92.5557,267.5679,-5.029e-05,-1.088e-05,0.0,0 STARLINK-3653,1 52000U 22025AW  24101.18185251 -.00001088  00000-0 -50290-4 0  9996,2 52000  53.2208 274.7558 0002128  92.5557 267.5679 15.08832016115477,6917.905,95.438,541.242,538.298,0.0
52000.0,STARLINK-3653,PAYLOAD,2024-04-10 18:40:19,15.08840603,0.0001991,53.2202,272.0801,94.2806,265.8413,2.4804e-05,1.07e-06,0.0,0 STARLINK-3653,1 52000U 22025AW  24101.77800555  .00000107  00000-0  24804-4 0  9993,2 52000  53.2202 272.0801 0001991  94.2806 265.8413 15.08840603117094,6917.879,95.438,541.121,538.366,0.0
52000.0,STARLINK-3653,PAYLOAD,2024-04-10 21:51:06,15.0883553,0.000156,53.2167,271.4847,94.8782,265.2388,-2.4439e-06,-3.27e-06,0.0,0 STARLINK-3653,1 52000U 22025AW  24101.91048926 -.00000327  00000-0 -24439-5 0  9996,2 52000  53.2167 271.4847 0001560  94.8782 265.2388 15.08835530115588,6917.894,95.438,540.838,538.68,0.0
52000.0,STARLINK-3653,PAYLOAD,2024-04-11 10:34:10,15.08851057,0.0001096,53.2179,269.1073,96.4517,263.66,-8.4723e-05,-1.636e-05,0.0,0 STARLINK-3653,1 52000U 22025AW  24102.44040037 -.00001636  00000-0 -84723-4 0  9995,2 52000  53.2179 269.1073 0001096  96.4517 263.6600 15.08851057115664,6917.847,95.437,540.47,538.953,0.0
52000.0,STARLINK-3653,PAYLOAD,2024-04-11 16:55:44,15.08830459,0.0001524,53.219,267.9178,94.7372,265.3794,7.8073e-05,9.54e-06,0.0,0 STARLINK-3653,1 52000U 22025AW  24102.70537169  .00000954  00000-0  78073-4 0  9992,2 52000  53.2190 267.9178 0001524  94.7372 265.3794 15.08830459117236,6917.91,95.438,540.829,538.72,0.0
52000.0,STARLINK-3653,PAYLOAD,2024-04-12 04:03:25,15.08843229,0.0001444,53.2192,265.8355,87.1815,272.9342,9.2412e-05,1.183e-05,0.0,0 STARLINK-3653,1 52000U 22025AW  24103.16904413  .00001183  00000-0  92412-4 0  9991,2 52000  53.2192 265.8355 0001444  87.1815 272.9342 15.08843229117301,6917.871,95.437,540.734,538.737,0.0
52000.0,STARLINK-3653,PAYLOAD,2024-04-12 15:11:08,15.0882886,0.0001208,53.2209,263.7511,88.007,272.1061,0.00014035,1.946e-05,0.0,0 STARLINK-3653,1 52000U 22025AW  24103.63273282  .00001946  00000-0  14035-3 0  9997,2 52000  53.2209 263.7511 0001208  88.0070 272.1061 15.08828860117373,6917.914,95.438,540.615,538.944,0.0
52000.0,STARLINK-3653,PAYLOAD,2024-04-13 10:15:44,15.0884932,0.0002227,53.2175,260.1841,85.7055,274.4192,4.6762e-05,4.56e-06,0.0,0 STARLINK-3653,1 52000U 22025AW  24104.42760358  .00000456  00000-0  46762-4 0  9998,2 52000  53.2175 260.1841 0002227  85.7055 274.4192 15.08849320117498,6917.852,95.437,541.258,538.176,0.0
52000.0,STARLINK-3653,PAYLOAD,2024-04-13 16:37:17,15.08847585,0.0001352,53.218,258.9923,86.8885,273.2262,7.2468e-05,8.66e-06,0.0,0 STARLINK-3653,1 52000U 22025AW  24104.69256211  .00000866  00000-0  72468-4 0  9992,2 52000  53.2180 258.9923 0001352  86.8885 273.2262 15.08847585116003,6917.857,95.437,540.657,538.787,0.0
52000.0,STARLINK-3653,PAYLOAD,2024-04-14 10:06:32,15.0883981,0.0001647,53.2197,255.7228,89.6178,270.5003,8.3669e-05,1.044e-05,0.0,0 STARLINK-3653,1 52000U 22025AW  24105.42120646  .00001044  00000-0  83669-4 0  9990,2 52000  53.2197 255.7228 0001647  89.6178 270.5003 15.08839810117643,6917.881,95.438,540.885,538.607,0.0
52000.0,STARLINK-3653,PAYLOAD,2024-04-14 16:28:04,15.0884201,0.0001281,53.2169,254.5321,76.9121,283.2015,1.6257e-05,-2.9e-07,0.0,0 STARLINK-3653,1 52000U 22025AW  24105.68616737 -.00000029  00000-0  16257-4 0  9991,2 52000  53.2169 254.5321 0001281  76.9121 283.2015 15.08842010116159,6917.874,95.437,540.625,538.853,0.0
52000.0,STARLINK-3653,PAYLOAD,2024-04-15 13:08:05,15.08839983,0.0001263,53.217,250.6665,83.4743,276.6393,3.5706e-05,2.8e-06,0.0,0 STARLINK-3653,1 52000U 22025AW  24106.54728727  .00000280  00000-0  35706-4 0  9998,2 52000  53.2170 250.6665 0001263  83.4743 276.6393 15.08839983117816,6917.88,95.438,540.619,538.872,0.0
52000.0,STARLINK-3653,PAYLOAD,2024-04-15 19:29:37,15.08842743,0.0001323,53.2174,249.4767,90.6997,269.4147,5.691e-05,6.18e-06,0.0,0 STARLINK-3653,1 52000U 22025AW  24106.81224476  .00000618  00000-0  56910-4 0  9995,2 52000  53.2174 249.4767 0001323  90.6997 269.4147 15.08842743116327,6917.872,95.437,540.652,538.822,0.0
52000.0,STARLINK-3653,PAYLOAD,2024-04-16 14:34:15,15.08836974,0.0001323,53.2173,245.9081,91.017,269.0974,5.8702e-05,6.46e-06,0.0,0 STARLINK-3653,1 52000U 22025AW  24107.60712927  .00000646  00000-0  58702-4 0  9998,2 52000  53.2173 245.9081 0001323  91.0170 269.0974 15.08836974116440,6917.89,95.438,540.67,538.839,0.0
52000.0,STARLINK-3653,PAYLOAD,2024-04-16 16:09:38,15.08839636,0.0001176,53.2163,245.6145,79.2699,280.8426,0.0001024,1.342e-05,0.0,0 STARLINK-3653,1 52000U 22025AW  24107.67336720  .00001342  00000-0  10240-3 0  9996,2 52000  53.2163 245.6145 0001176  79.2699 280.8426 15.08839636117988,6917.882,95.438,540.56,538.933,0.0
52000.0,STARLINK-3653,PAYLOAD,2024-04-17 12:49:38,15.08848204,0.000118,53.2165,241.7452,92.2056,267.9071,9.7234e-05,1.26e-05,0.0,0 STARLINK-3653,1 52000U 22025AW  24108.53447906  .00001260  00000-0  97234-4 0  9999,2 52000  53.2165 241.7452 0001180  92.2056 267.9071 15.08848204118114,6917.855,95.437,540.537,538.904,0.0
52000.0,STARLINK-3653,PAYLOAD,2024-04-17 14:25:02,15.0884903,0.0001182,53.2164,241.4479,92.1263,267.9865,0.00010074,1.316e-05,0.0,0 STARLINK-3653,1 52000U 22025AW  24108.60071807  .00001316  00000-0  10074-3 0  9998,2 52000  53.2164 241.4479 0001182  92.1263 267.9865 15.08849030116599,6917.853,95.437,540.535,538.9,0.0
52000.0,STARLINK-3653,PAYLOAD,2024-04-17 16:00:25,15.08851275,0.0001117,53.2167,241.151,93.9442,266.1678,0.00012511,1.704e-05,0.0,0 STARLINK-3653,1 52000U 22025AW  24108.66695702  .00001704  00000-0  12511-3 0  9999,2 52000  53.2167 241.1510 0001117  93.9442 266.1678 15.08851275116600,6917.846,95.437,540.484,538.938,0.0
52000.0,STARLINK-3653,PAYLOAD,2024-04-18 12:40:27,15.08828954,0.0001651,53.2174,237.2872,131.0238,229.0898,2.3704e-05,8.9e-07,0.0,0 STARLINK-3653,1 52000U 22025AW  24109.52809409  .00000089  00000-0  23704-4 0  9998,2 52000  53.2174 237.2872 0001651 131.0238 229.0898 15.08828954118269,6917.914,95.438,540.921,538.637,0.0
52000.0,STARLINK-3653,PAYLOAD,2024-04-18 14:15:50,15.08828425,0.0001588,53.2172,236.9898,129.7933,230.3199,1.7686e-05,-7e-08,0.0,0 STARLINK-3653,1 52000U 22025AW  24109.59433514 -.00000007  00000-0  17686-4 0  9998,2 52000  53.2172 236.9898 0001588 129.7933 230.3199 15.08828425116749,6917.916,95.438,540.879,538.682,0.0
52000.0,STARLINK-3653,PAYLOAD,2024-04-18 15:51:13,15.08828007,0.000125,53.2169,236.6923,122.8204,237.2909,1.2226e-05,-9.3e-07,0.0,0 STARLINK-3653,1 52000U 22025AW  24109.66057629 -.00000093  00000-0  12226-4 0  9995,2 52000  53.2169 236.6923 0001250 122.8204 237.2909 15.08828007116754,6917.917,95.438,540.647,538.917,0.0
